     3.03           N: GNSS NAV DATA    M: MIXED            RINEX VERSION / TYPE
GR30 V4.20          ASI-egeos           20210702 235942 UTC PGM / RUN BY / DATE
GAL    6.3750D+01  2.1484D-01  1.0406D-02                   IONOSPHERIC CORR
GPSA   7.4506D-09  2.2352D-08 -5.9605D-08 -1.1921D-07       IONOSPHERIC CORR
GPSB   9.2160D+04  1.3107D+05 -6.5536D+04 -5.2429D+05       IONOSPHERIC CORR
BDSA   9.3132D-09  4.4703D-08 -4.1723D-07  6.5565D-07 M 02  IONOSPHERIC CORR
BDSA   1.0245D-08  3.7253D-08 -3.5763D-07  5.9605D-07 W 05  IONOSPHERIC CORR
BDSA   1.0245D-08  3.7253D-08 -3.5763D-07  5.3644D-07 Q 06  IONOSPHERIC CORR
BDSA   1.0245D-08  3.7253D-08 -3.5763D-07  5.9605D-07 W 07  IONOSPHERIC CORR
BDSA   1.1176D-08  3.7253D-08 -4.1723D-07  6.5565D-07 G 08  IONOSPHERIC CORR
BDSA   1.0245D-08  3.7253D-08 -3.5763D-07  5.3644D-07 U 09  IONOSPHERIC CORR
BDSA   1.0245D-08  3.7253D-08 -3.5763D-07  5.9605D-07 W 10  IONOSPHERIC CORR
BDSA   1.0245D-08  4.4703D-08 -4.1723D-07  6.5565D-07 R 11  IONOSPHERIC CORR
BDSA   1.1176D-08  4.4703D-08 -4.1723D-07  7.1526D-07 O 12  IONOSPHERIC CORR
BDSA   1.0245D-08  3.7253D-08 -4.1723D-07  5.9605D-07 K 13  IONOSPHERIC CORR
BDSA   1.0245D-08  3.7253D-08 -3.5763D-07  5.9605D-07 X 14  IONOSPHERIC CORR
BDSA   1.0245D-08  3.7253D-08 -3.5763D-07  5.3644D-07 Q 16  IONOSPHERIC CORR
BDSA   1.0245D-08  3.7253D-08 -3.5763D-07  5.9605D-07 S 19  IONOSPHERIC CORR
BDSA   1.0245D-08  3.7253D-08 -3.5763D-07  5.3644D-07 O 20  IONOSPHERIC CORR
BDSA   1.0245D-08  3.7253D-08 -3.5763D-07  5.9605D-07 W 21  IONOSPHERIC CORR
BDSA   1.0245D-08  3.7253D-08 -3.5763D-07  5.3644D-07 U 22  IONOSPHERIC CORR
BDSA   1.1176D-08  3.7253D-08 -4.1723D-07  6.5565D-07 G 23  IONOSPHERIC CORR
BDSA   1.0245D-08  3.7253D-08 -3.5763D-07  5.9605D-07 W 24  IONOSPHERIC CORR
BDSA   1.0245D-08  3.7253D-08 -3.5763D-07  5.9605D-07 W 25  IONOSPHERIC CORR
BDSA   1.0245D-08  3.7253D-08 -3.5763D-07  5.9605D-07 W 26  IONOSPHERIC CORR
BDSA   1.0245D-08  3.7253D-08 -4.1723D-07  5.9605D-07 K 27  IONOSPHERIC CORR
BDSA   1.0245D-08  3.7253D-08 -3.5763D-07  5.3644D-07 U 28  IONOSPHERIC CORR
BDSA   1.0245D-08  3.7253D-08 -3.5763D-07  5.3644D-07 O 29  IONOSPHERIC CORR
BDSA   1.0245D-08  3.7253D-08 -3.5763D-07  5.3644D-07 M 30  IONOSPHERIC CORR
BDSB   1.1059D+05  3.7683D+05 -1.5729D+06  1.1141D+06 M 02  IONOSPHERIC CORR
BDSB   1.0445D+05  4.4237D+05 -1.7039D+06  1.1796D+06 W 05  IONOSPHERIC CORR
BDSB   1.0240D+05  5.0790D+05 -2.1627D+06  1.5073D+06 Q 06  IONOSPHERIC CORR
BDSB   1.0445D+05  4.4237D+05 -1.7039D+06  1.1796D+06 W 07  IONOSPHERIC CORR
BDSB   9.8304D+04  5.0790D+05 -2.0316D+06  1.3763D+06 G 08  IONOSPHERIC CORR
BDSB   1.0445D+05  4.4237D+05 -1.9005D+06  1.3763D+06 U 09  IONOSPHERIC CORR
BDSB   1.0445D+05  4.4237D+05 -1.7039D+06  1.1796D+06 W 10  IONOSPHERIC CORR
BDSB   1.0035D+05  4.9152D+05 -2.0316D+06  1.4418D+06 R 11  IONOSPHERIC CORR
BDSB   9.8304D+04  4.7514D+05 -1.8350D+06  1.2452D+06 O 12  IONOSPHERIC CORR
BDSB   1.0035D+05  5.2429D+05 -2.2938D+06  1.5729D+06 K 13  IONOSPHERIC CORR
BDSB   1.0445D+05  4.4237D+05 -1.7039D+06  1.1796D+06 X 14  IONOSPHERIC CORR
BDSB   1.0240D+05  5.0790D+05 -2.1627D+06  1.5073D+06 Q 16  IONOSPHERIC CORR
BDSB   1.0445D+05  4.2598D+05 -1.7039D+06  1.1141D+06 S 19  IONOSPHERIC CORR
BDSB   1.0445D+05  4.7514D+05 -2.0316D+06  1.4418D+06 O 20  IONOSPHERIC CORR
BDSB   1.0445D+05  4.4237D+05 -1.7039D+06  1.1796D+06 W 21  IONOSPHERIC CORR
BDSB   1.0445D+05  4.4237D+05 -1.9005D+06  1.3763D+06 U 22  IONOSPHERIC CORR
BDSB   9.8304D+04  5.0790D+05 -2.0316D+06  1.3763D+06 G 23  IONOSPHERIC CORR
BDSB   1.0445D+05  4.4237D+05 -1.7039D+06  1.1796D+06 W 24  IONOSPHERIC CORR
BDSB   1.0445D+05  4.4237D+05 -1.7039D+06  1.1796D+06 W 25  IONOSPHERIC CORR
BDSB   1.0445D+05  4.4237D+05 -1.7039D+06  1.1796D+06 W 26  IONOSPHERIC CORR
BDSB   1.0035D+05  5.2429D+05 -2.2938D+06  1.5729D+06 K 27  IONOSPHERIC CORR
BDSB   1.0445D+05  4.4237D+05 -1.9005D+06  1.3763D+06 U 28  IONOSPHERIC CORR
BDSB   1.0445D+05  4.7514D+05 -2.0316D+06  1.4418D+06 O 29  IONOSPHERIC CORR
BDSB   1.0035D+05  5.2429D+05 -2.2282D+06  1.5729D+06 M 30  IONOSPHERIC CORR
GPUT -4.6566128731D-09-1.065814104D-14  61440 2165          TIME SYSTEM CORR
GLUT  2.4680048227D-08 0.000000000D+00      0    0          TIME SYSTEM CORR
GAUT  0.0000000000D+00 0.000000000D+00 432000 2164          TIME SYSTEM CORR
GPGA  4.7439243644D-09-4.440892099D-16 518400 2164          TIME SYSTEM CORR
BDUT -2.7939677238D-09-9.769962617D-15 518345  808          TIME SYSTEM CORR
    18    18  1929     7                                    LEAP SECONDS
                                                            END OF HEADER
C28 2021 07 03 09 00 00-5.508714821190D-05 4.612310533503D-12 0.000000000000D+00
     1.000000000000D+00-4.639062500000D+01 3.638008680521D-09-9.908010678700D-01
    -2.333428710699D-06 1.626648008823D-04 7.128342986107D-06 5.282620256424D+03
     5.508000000000D+05-8.847564458847D-09 1.557900464008D+00 5.587935447693D-09
     9.662054153395D-01 2.207187500000D+02 2.755409694285D+00-6.791354315739D-09
    -2.800116636097D-10                    8.080000000000D+02                   
     2.000000000000D+00 0.000000000000D+00-4.400000000000D-09-4.400000000000D-09
     5.508000000000D+05 1.000000000000D+00                                      
C27 2021 07 03 09 00 00 5.582345183939D-04 6.143530129066D-12 0.000000000000D+00
     1.000000000000D+00-5.171875000000D+01 3.650866358952D-09-2.024297824130D-01
    -2.550426870584D-06 7.392398547381D-04 7.521361112595D-06 5.282624805450D+03
     5.508000000000D+05 2.514570951462D-08 1.558077651182D+00 1.490116119385D-08
     9.663098384320D-01 2.086718750000D+02 1.178572822209D+00-6.865643124451D-09
    -2.900120801672D-10                    8.080000000000D+02                   
     2.000000000000D+00 0.000000000000D+00-4.500000000000D-09-4.500000000000D-09
     5.508000000000D+05 1.000000000000D+00                                      
C13 2021 07 03 09 00 00 3.226711414754D-04 1.413269501427D-11 0.000000000000D+00
     1.000000000000D+00-5.353125000000D+01 6.878857960617D-10-1.984390605354D+00
    -1.693144440651D-06 3.726611961611D-03 1.437356695533D-05 6.493566148758D+03
     5.508000000000D+05-2.793967723846D-07 2.464288828275D+00-1.294538378716D-07
     1.005264571727D+00-1.699531250000D+02-2.621377135474D+00-1.768645099739D-09
     2.867976605595D-10                    8.080000000000D+02                   
     2.000000000000D+00 0.000000000000D+00-9.200000000000D-09 2.400000000000D-09
     5.508000000000D+05 0.000000000000D+00                                      
E11 2021 07 03 08 40 00 5.770900985226D-03-5.070432962384D-11 0.000000000000D+00
     2.000000000000D+01-4.068750000000D+01 2.468317101029D-09 3.657732215686D-01
    -1.884996891022D-06 4.976846976206D-04 8.920207619667D-06 5.440609451294D+03
     5.496000000000D+05-6.519258022308D-08 2.017718600227D+00-6.332993507385D-08
     9.919776870295D-01 1.678125000000D+02 1.008885884992D+00-5.260933424708D-09
    -1.071473202588D-10 5.170000000000D+02 2.164000000000D+03 0.000000000000D+00
     3.120000000000D+00 0.000000000000D+00-1.303851604462D-08-1.443549990654D-08
     5.508250000000D+05
C05 2021 07 03 09 00 00-6.208301056176D-05 1.685673822749D-11 0.000000000000D+00
     1.000000000000D+00 1.759375000000D+02 2.632966816494D-09 1.188328651298D+00
     5.775131285191D-06 7.183400448412D-04 7.797963917255D-06 6.493286645889D+03
     5.508000000000D+05 5.913898348808D-08-7.675839861197D-01-4.610046744347D-08
     6.017418594781D-02-2.322968750000D+02 3.071700547149D+00-1.494347959876D-09
    -3.825159333240D-10                    8.080000000000D+02                   
     2.000000000000D+00 0.000000000000D+00 0.000000000000D+00-9.500000000000D-09
     5.508004000000D+05 0.000000000000D+00                                      
E11 2021 07 03 08 50 00 5.770870542619D-03-5.070432962384D-11 0.000000000000D+00
     2.100000000000D+01-4.046875000000D+01 2.476531728916D-09 4.401998591082D-01
    -1.894310116768D-06 4.976764321327D-04 8.931383490562D-06 5.440609411240D+03
     5.502000000000D+05-5.029141902924D-08 2.017715519322D+00-6.705522537231D-08
     9.919776460678D-01 1.679062500000D+02 1.008844292768D+00-5.265933632987D-09
    -1.153619481453D-10 5.170000000000D+02 2.164000000000D+03 0.000000000000D+00
     3.120000000000D+00 0.000000000000D+00-1.303851604462D-08-1.443549990654D-08
     5.508550000000D+05
E25 2021 07 03 08 50 00-5.388187710196D-04-1.222133505507D-12 0.000000000000D+00
     2.100000000000D+01 1.067812500000D+02 3.141916587723D-09-1.799782218256D+00
     5.016103386879D-06 2.452180488035D-04 5.370005965233D-06 5.440611206055D+03
     5.502000000000D+05 2.235174179077D-08-6.844548380628D-02-3.352761268616D-08
     9.774071853439D-01 2.347187500000D+02-1.740017596706D+00-5.632377468272D-09
     1.610781381224D-10 5.170000000000D+02 2.164000000000D+03 0.000000000000D+00
     3.120000000000D+00 0.000000000000D+00 3.725290298462D-09 4.190951585770D-09
     5.508640000000D+05
E36 2021 07 03 08 50 00-2.292743884027D-04-5.286437954055D-12 0.000000000000D+00
     2.100000000000D+01-4.462500000000D+01 2.390099557240D-09-9.208722012235D-02
    -2.056360244751D-06 1.618996029720D-04 9.598210453987D-06 5.440611701965D+03
     5.502000000000D+05-3.911554813385D-08 2.014380117303D+00 6.332993507385D-08
     9.951465007148D-01 1.486875000000D+02 7.720836193075D-01-5.277005522747D-09
    -4.571618997710D-11 5.130000000000D+02 2.164000000000D+03 0.000000000000D+00
     3.120000000000D+00 0.000000000000D+00 6.286427378654D-09 7.217749953270D-09
     5.508640000000D+05
